{"type": "FeatureCollection", "features": [ {"type": "Feature", "properties": {"norad_id": 66520, "name": "STARLINK-35952", "group": "last-30-days", "lat": 23.467507548179324, "lon": 130.80533688690048, "alt_km": 344.4349509862068, "timestamp": "2025-12-04T10:51:48.876347+00:00", "meta": {"OBJECT_NAME": "STARLINK-35952", "OBJECT_ID": "2025-265E", "EPOCH": "2025-12-04T04:00:03.000096", "MEAN_MOTION": 15.7513344, "ECCENTRICITY": 0.0001379, "INCLINATION": 42.9998, "RA_OF_ASC_NODE": 104.7708, "ARG_OF_PERICENTER": 274.2213, "MEAN_ANOMALY": 298.7446, "EPHEMERIS_TYPE": 0, "CLASSIFICATION_TYPE": "U", "NORAD_CAT_ID": 66520, "ELEMENT_SET_NO": 999, "REV_AT_EPOCH": 361, "BSTAR": -0.013897, "MEAN_MOTION_DOT": -0.01868914, "MEAN_MOTION_DDOT": 0}, "tle": {"line1": "1 66520U 25265E   25338.16670139 -.01868914  00000+0 -13897-1 0  9990", "line2": "2 66520  42.9998 104.7708 0001379 274.2213 298.7446 15.75133440  3613"}}, "geometry": {"type": "Point", "coordinates": [130.80533688690048, 23.467507548179324]}}, {"type": "Feature", "properties": {"norad_id": 66521, "name": "STARLINK-35915", "group": "last-30-days", "lat": 24.609126350094826, "lon": 132.4739517899787, "alt_km": 344.5353423343495, "timestamp": "2025-12-04T10:51:48.876360+00:00", "meta": {"OBJECT_NAME": "STARLINK-35915", "OBJECT_ID": "2025-265F", "EPOCH": "2025-12-04T04:00:03.000096", "MEAN_MOTION": 15.75018483, "ECCENTRICITY": 9.39e-05, "INCLINATION": 42.9997, "RA_OF_ASC_NODE": 104.7659, "ARG_OF_PERICENTER": 254.2745, "MEAN_ANOMALY": 320.6781, "EPHEMERIS_TYPE": 0, "CLASSIFICATION_TYPE": "U", "NORAD_CAT_ID": 66521, "ELEMENT_SET_NO": 999, "REV_AT_EPOCH": 361, "BSTAR": -0.012857, "MEAN_MOTION_DOT": -0.01738098, "MEAN_MOTION_DDOT": 0}, "tle": {"line1": "1 66521U 25265F   25338.16670139 -.01738098  00000+0 -12857-1 0  9995", "line2": "2 66521  42.9997 104.7659 0000939 254.2745 320.6781 15.75018483  3613"}}, "geometry": {"type": "Point", "coordinates": [132.4739517899787, 24.609126350094826]}}, {"type": "Feature", "properties": {"norad_id": 66522, "name": "STARLINK-35946", "group": "last-30-days", "lat": 25.755881861745376, "lon": 134.20976828631896, "alt_km": 344.31327656775284, "timestamp": "2025-12-04T10:51:48.876371+00:00", "meta": {"OBJECT_NAME": "STARLINK-35946", "OBJECT_ID": "2025-265G", "EPOCH": "2025-12-04T04:00:03.000096", "MEAN_MOTION": 15.75182817, "ECCENTRICITY": 0.000144, "INCLINATION": 42.9998, "RA_OF_ASC_NODE": 104.7612, "ARG_OF_PERICENTER": 265.0036, "MEAN_ANOMALY": 311.7903, "EPHEMERIS_TYPE": 0, "CLASSIFICATION_TYPE": "U", "NORAD_CAT_ID": 66522, "ELEMENT_SET_NO": 999, "REV_AT_EPOCH": 361, "BSTAR": -0.014434, "MEAN_MOTION_DOT": -0.01934956, "MEAN_MOTION_DDOT": 0}, "tle": {"line1": "1 66522U 25265G   25338.16670139 -.01934956  00000+0 -14434-1 0  9990", "line2": "2 66522  42.9998 104.7612 0001440 265.0036 311.7903 15.75182817  3615"}}, "geometry": {"type": "Point", "coordinates": [134.20976828631896, 25.755881861745376]}}, {"type": "Feature", "properties": {"norad_id": 66523, "name": "STARLINK-35969", "group": "last-30-days", "lat": 26.84257279766167, "lon": 135.91680064851244, "alt_km": 344.1325241799168, "timestamp": "2025-12-04T10:51:48.876381+00:00", "meta": {"OBJECT_NAME": "STARLINK-35969", "OBJECT_ID": "2025-265H", "EPOCH": "2025-12-04T04:00:03.000096", "MEAN_MOTION": 15.75124283, "ECCENTRICITY": 9.29e-05, "INCLINATION": 42.9999, "RA_OF_ASC_NODE": 104.7564, "ARG_OF_PERICENTER": 252.9986, "MEAN_ANOMALY": 325.7105, "EPHEMERIS_TYPE": 0, "CLASSIFICATION_TYPE": "U", "NORAD_CAT_ID": 66523, "ELEMENT_SET_NO": 999, "REV_AT_EPOCH": 361, "BSTAR": -0.013696, "MEAN_MOTION_DOT": -0.01844483, "MEAN_MOTION_DDOT": 0}, "tle": {"line1": "1 66523U 25265H   25338.16670139 -.01844483  00000+0 -13696-1 0  9995", "line2": "2 66523  42.9999 104.7564 0000929 252.9986 325.7105 15.75124283  3615"}}, "geometry": {"type": "Point", "coordinates": [135.91680064851244, 26.84257279766167]}}, {"type": "Feature", "properties": {"norad_id": 66524, "name": "STARLINK-35687", "group": "last-30-days", "lat": 27.936820781547286, "lon": 137.70407195518126, "alt_km": 343.9186452062286, "timestamp": "2025-12-04T10:51:48.876391+00:00", "meta": {"OBJECT_NAME": "STARLINK-35687", "OBJECT_ID": "2025-265J", "EPOCH": "2025-12-04T04:00:03.000096", "MEAN_MOTION": 15.75126964, "ECCENTRICITY": 0.0001339, "INCLINATION": 42.9999, "RA_OF_ASC_NODE": 104.7512, "ARG_OF_PERICENTER": 266.5024, "MEAN_ANOMALY": 314.1266, "EPHEMERIS_TYPE": 0, "CLASSIFICATION_TYPE": "U", "NORAD_CAT_ID": 66524, "ELEMENT_SET_NO": 999, "REV_AT_EPOCH": 361, "BSTAR": -0.01374, "MEAN_MOTION_DOT": -0.01850062, "MEAN_MOTION_DDOT": 0}, "tle": {"line1": "1 66524U 25265J   25338.16670139 -.01850062  00000+0 -13740-1 0  9996", "line2": "2 66524  42.9999 104.7512 0001339 266.5024 314.1266 15.75126964  3617"}}, "geometry": {"type": "Point", "coordinates": [137.70407195518126, 27.936820781547286]}}, {"type": "Feature", "properties": {"norad_id": 66525, "name": "STARLINK-35975", "group": "last-30-days", "lat": 29.011428040949006, "lon": 139.53551923201624, "alt_km": 343.9660175737599, "timestamp": "2025-12-04T10:51:48.876406+00:00", "meta": {"OBJECT_NAME": "STARLINK-35975", "OBJECT_ID": "2025-265K", "EPOCH": "2025-12-04T04:00:03.000096", "MEAN_MOTION": 15.75182343, "ECCENTRICITY": 0.0001188, "INCLINATION": 42.9999, "RA_OF_ASC_NODE": 104.7469, "ARG_OF_PERICENTER": 243.5376, "MEAN_ANOMALY": 339.0123, "EPHEMERIS_TYPE": 0, "CLASSIFICATION_TYPE": "U", "NORAD_CAT_ID": 66525, "ELEMENT_SET_NO": 999, "REV_AT_EPOCH": 361, "BSTAR": -0.014475, "MEAN_MOTION_DOT": -0.01939417, "MEAN_MOTION_DDOT": 0}, "tle": {"line1": "1 66525U 25265K   25338.16670139 -.01939417  00000+0 -14475-1 0  9995", "line2": "2 66525  42.9999 104.7469 0001188 243.5376 339.0123 15.75182343  3617"}}, "geometry": {"type": "Point", "coordinates": [139.53551923201624, 29.011428040949006]}}, {"type": "Feature", "properties": {"norad_id": 66526, "name": "STARLINK-35932", "group": "last-30-days", "lat": 30.056600187373967, "lon": 141.39761657466883, "alt_km": 343.87756292340055, "timestamp": "2025-12-04T10:51:48.876416+00:00", "meta": {"OBJECT_NAME": "STARLINK-35932", "OBJECT_ID": "2025-265L", "EPOCH": "2025-12-04T04:00:03.000096", "MEAN_MOTION": 15.75205102, "ECCENTRICITY": 0.000161, "INCLINATION": 42.9998, "RA_OF_ASC_NODE": 104.7422, "ARG_OF_PERICENTER": 261.0643, "MEAN_ANOMALY": 323.3935, "EPHEMERIS_TYPE": 0, "CLASSIFICATION_TYPE": "U", "NORAD_CAT_ID": 66526, "ELEMENT_SET_NO": 999, "REV_AT_EPOCH": 350, "BSTAR": -0.014677, "MEAN_MOTION_DOT": -0.02006375, "MEAN_MOTION_DDOT": 0}, "tle": {"line1": "1 66526U 25265L   25338.16670139 -.02006375  00000+0 -14677-1 0  9999", "line2": "2 66526  42.9998 104.7422 0001610 261.0643 323.3935 15.75205102  3502"}}, "geometry": {"type": "Point", "coordinates": [141.39761657466883, 30.056600187373967]}}, {"type": "Feature", "properties": {"norad_id": 66527, "name": "STARLINK-35935", "group": "last-30-days", "lat": 31.059473730837663, "lon": 143.26917310157728, "alt_km": 343.29987438230273, "timestamp": "2025-12-04T10:51:48.876429+00:00", "meta": {"OBJECT_NAME": "STARLINK-35935", "OBJECT_ID": "2025-265M", "EPOCH": "2025-12-04T04:00:03.000096", "MEAN_MOTION": 15.75194264, "ECCENTRICITY": 6.08e-05, "INCLINATION": 42.9999, "RA_OF_ASC_NODE": 104.7374, "ARG_OF_PERICENTER": 259.8052, "MEAN_ANOMALY": 326.5685, "EPHEMERIS_TYPE": 0, "CLASSIFICATION_TYPE": "U", "NORAD_CAT_ID": 66527, "ELEMENT_SET_NO": 999, "REV_AT_EPOCH": 361, "BSTAR": -0.01456, "MEAN_MOTION_DOT": -0.01949654, "MEAN_MOTION_DDOT": 0}, "tle": {"line1": "1 66527U 25265M   25338.16670139 -.01949654  00000+0 -14560-1 0  9996", "line2": "2 66527  42.9999 104.7374 0000608 259.8052 326.5685 15.75194264  3610"}}, "geometry": {"type": "Point", "coordinates": [143.26917310157728, 31.059473730837663]}}, {"type": "Feature", "properties": {"norad_id": 66528, "name": "STARLINK-35928", "group": "last-30-days", "lat": 32.04705668601605, "lon": 145.20520650676437, "alt_km": 343.52470827785237, "timestamp": "2025-12-04T10:51:48.876439+00:00", "meta": {"OBJECT_NAME": "STARLINK-35928", "OBJECT_ID": "2025-265N", "EPOCH": "2025-12-04T04:00:03.000096", "MEAN_MOTION": 15.75190217, "ECCENTRICITY": 0.0001304, "INCLINATION": 43, "RA_OF_ASC_NODE": 104.7326, "ARG_OF_PERICENTER": 250.6396, "MEAN_ANOMALY": 337.6564, "EPHEMERIS_TYPE": 0, "CLASSIFICATION_TYPE": "U", "NORAD_CAT_ID": 66528, "ELEMENT_SET_NO": 999, "REV_AT_EPOCH": 361, "BSTAR": -0.014526, "MEAN_MOTION_DOT": -0.01946088, "MEAN_MOTION_DDOT": 0}, "tle": {"line1": "1 66528U 25265N   25338.16670139 -.01946088  00000+0 -14526-1 0  9997", "line2": "2 66528  43.0000 104.7326 0001304 250.6396 337.6564 15.75190217  3610"}}, "geometry": {"type": "Point", "coordinates": [145.20520650676437, 32.04705668601605]}}, {"type": "Feature", "properties": {"norad_id": 66529, "name": "STARLINK-35933", "group": "last-30-days", "lat": 32.997625832423225, "lon": 147.167994407944, "alt_km": 343.38975031820155, "timestamp": "2025-12-04T10:51:48.876453+00:00", "meta": {"OBJECT_NAME": "STARLINK-35933", "OBJECT_ID": "2025-265P", "EPOCH": "2025-12-04T04:00:03.000096", "MEAN_MOTION": 15.75201345, "ECCENTRICITY": 0.000127, "INCLINATION": 43, "RA_OF_ASC_NODE": 104.7272, "ARG_OF_PERICENTER": 244.7666, "MEAN_ANOMALY": 345.4349, "EPHEMERIS_TYPE": 0, "CLASSIFICATION_TYPE": "U", "NORAD_CAT_ID": 66529, "ELEMENT_SET_NO": 999, "REV_AT_EPOCH": 361, "BSTAR": -0.014612, "MEAN_MOTION_DOT": -0.01956777, "MEAN_MOTION_DDOT": 0}, "tle": {"line1": "1 66529U 25265P   25338.16670139 -.01956777  00000+0 -14612-1 0  9990", "line2": "2 66529  43.0000 104.7272 0001270 244.7666 345.4349 15.75201345  3610"}}, "geometry": {"type": "Point", "coordinates": [147.167994407944, 32.997625832423225]}}]}